[{"OBJECT_NAME":"ONEWEB-0012","OBJECT_ID":"2019-010A","EPOCH":"2025-12-18T05:28:54.194592","MEAN_MOTION":13.16596626,"ECCENTRICITY":0.00019952,"INCLINATION":87.9038,"RA_OF_ASC_NODE":264.8227,"ARG_OF_PERICENTER":83.111,"MEAN_ANOMALY":277.0248,"EPHEMERIS_TYPE":0,"CLASSIFICATION_TYPE":"U","NORAD_CAT_ID":44057,"ELEMENT_SET_NO":999,"REV_AT_EPOCH":32775,"BSTAR":3.6507674e-5,"MEAN_MOTION_DOT":2.7e-7,"MEAN_MOTION_DDOT":0},{"OBJECT_NAME":"ONEWEB-0010","OBJECT_ID":"2019-010B","EPOCH":"2025-12-18T06:05:22.853472","MEAN_MOTION":13.16592463,"ECCENTRICITY":0.00018011,"INCLINATION":87.9046,"RA_OF_ASC_NODE":264.8077,"ARG_OF_PERICENTER":62.2896,"MEAN_ANOMALY":297.8417,"EPHEMERIS_TYPE":0,"CLASSIFICATION_TYPE":"U","NORAD_CAT_ID":44058,"ELEMENT_SET_NO":999,"REV_AT_EPOCH":32780,"BSTAR":-0.00025150473,"MEAN_MOTION_DOT":-8.3e-7,"MEAN_MOTION_DDOT":0},{"OBJECT_NAME":"ONEWEB-0008","OBJECT_ID":"2019-010C","EPOCH":"2025-12-18T06:41:51.211680","MEAN_MOTION":13.16597404,"ECCENTRICITY":0.00015145,"INCLINATION":87.9046,"RA_OF_ASC_NODE":264.7999,"ARG_OF_PERICENTER":78.0014,"MEAN_ANOMALY":282.1287,"EPHEMERIS_TYPE":0,"CLASSIFICATION_TYPE":"U","NORAD_CAT_ID":44059,"ELEMENT_SET_NO":999,"REV_AT_EPOCH":32792,"BSTAR":0.00018177128,"MEAN_MOTION_DOT":8.2e-7,"MEAN_MOTION_DDOT":0},{"OBJECT_NAME":"ONEWEB-0007","OBJECT_ID":"2019-010D","EPOCH":"2025-12-18T05:55:01.757568","MEAN_MOTION":13.15548917,"ECCENTRICITY":0.00021632,"INCLINATION":87.8997,"RA_OF_ASC_NODE":295.3336,"ARG_OF_PERICENTER":74.1379,"MEAN_ANOMALY":285.9989,"EPHEMERIS_TYPE":0,"CLASSIFICATION_TYPE":"U","NORAD_CAT_ID":44060,"ELEMENT_SET_NO":999,"REV_AT_EPOCH":32758,"BSTAR":-2.2209581e-5,"MEAN_MOTION_DOT":4.0e-8,"MEAN_MOTION_DDOT":0},{"OBJECT_NAME":"ONEWEB-0006","OBJECT_ID":"2019-010E","EPOCH":"2025-12-18T06:00:43.374528","MEAN_MOTION":13.15548027,"ECCENTRICITY":0.00019369,"INCLINATION":87.9006,"RA_OF_ASC_NODE":295.2796,"ARG_OF_PERICENTER":72.3968,"MEAN_ANOMALY":287.7374,"EPHEMERIS_TYPE":0,"CLASSIFICATION_TYPE":"U","NORAD_CAT_ID":44061,"ELEMENT_SET_NO":999,"REV_AT_EPOCH":32763,"BSTAR":-0.00028421063,"MEAN_MOTION_DOT":-9.4e-7,"MEAN_MOTION_DDOT":0},{"OBJECT_NAME":"ONEWEB-0011","OBJECT_ID":"2019-010F","EPOCH":"2025-12-18T05:15:05.750784","MEAN_MOTION":13.15550132,"ECCENTRICITY":0.00016358,"INCLINATION":87.9005,"RA_OF_ASC_NODE":295.2946,"ARG_OF_PERICENTER":78.3635,"MEAN_ANOMALY":281.7679,"EPHEMERIS_TYPE":0,"CLASSIFICATION_TYPE":"U","NORAD_CAT_ID":44062,"ELEMENT_SET_NO":999,"REV_AT_EPOCH":32762,"BSTAR":0.00034977669,"MEAN_MOTION_DOT":1.45e-6,"MEAN_MOTION_DDOT":0},{"OBJECT_NAME":"ONEWEB-0013","OBJECT_ID":"2020-008A","EPOCH":"2025-12-18T05:28:27.830496","MEAN_MOTION":13.09441889,"ECCENTRICITY":0.00025886,"INCLINATION":87.8512,"RA_OF_ASC_NODE":89.3771,"ARG_OF_PERICENTER":113.4217,"MEAN_ANOMALY":246.7182,"EPHEMERIS_TYPE":0,"CLASSIFICATION_TYPE":"U","NORAD_CAT_ID":45131,"ELEMENT_SET_NO":999,"REV_AT_EPOCH":28238,"BSTAR":-0.0020353122,"MEAN_MOTION_DOT":-6.88e-6,"MEAN_MOTION_DDOT":0},{"OBJECT_NAME":"ONEWEB-0017","OBJECT_ID":"2020-008B","EPOCH":"2025-12-18T06:16:34.458816","MEAN_MOTION":13.10373788,"ECCENTRICITY":0.0001563,"INCLINATION":87.8806,"RA_OF_ASC_NODE":72.3429,"ARG_OF_PERICENTER":96.9299,"MEAN_ANOMALY":263.2006,"EPHEMERIS_TYPE":0,"CLASSIFICATION_TYPE":"U","NORAD_CAT_ID":45132,"ELEMENT_SET_NO":999,"REV_AT_EPOCH":28425,"BSTAR":-0.0016180591,"MEAN_MOTION_DOT":-5.52e-6,"MEAN_MOTION_DDOT":0},{"OBJECT_NAME":"ONEWEB-0020","OBJECT_ID":"2020-008C","EPOCH":"2025-12-18T05:33:34.337088","MEAN_MOTION":13.10370288,"ECCENTRICITY":0.00015599,"INCLINATION":87.881,"RA_OF_ASC_NODE":72.336,"ARG_OF_PERICENTER":109.7465,"MEAN_ANOMALY":250.3831,"EPHEMERIS_TYPE":0,"CLASSIFICATION_TYPE":"U","NORAD_CAT_ID":45133,"ELEMENT_SET_NO":999,"REV_AT_EPOCH":28464,"BSTAR":0.00086053166,"MEAN_MOTION_DOT":3.13e-6,"MEAN_MOTION_DDOT":0},{"OBJECT_NAME":"ONEWEB-0021","OBJECT_ID":"2020-008D","EPOCH":"2025-12-18T05:55:03.942624","MEAN_MOTION":13.10370691,"ECCENTRICITY":0.00018034,"INCLINATION":87.8804,"RA_OF_ASC_NODE":72.3622,"ARG_OF_PERICENTER":102.8305,"MEAN_ANOMALY":257.3024,"EPHEMERIS_TYPE":0,"CLASSIFICATION_TYPE":"U","NORAD_CAT_ID":45134,"ELEMENT_SET_NO":999,"REV_AT_EPOCH":28495,"BSTAR":-0.00099939572,"MEAN_MOTION_DOT":-3.36e-6,"MEAN_MOTION_DDOT":0},{"OBJECT_NAME":"ONEWEB-0023","OBJECT_ID":"2020-008F","EPOCH":"2025-12-18T06:10:35.906592","MEAN_MOTION":13.103737,"ECCENTRICITY":0.00018614,"INCLINATION":87.8801,"RA_OF_ASC_NODE":72.3408,"ARG_OF_PERICENTER":107.6262,"MEAN_ANOMALY":252.5069,"EPHEMERIS_TYPE":0,"CLASSIFICATION_TYPE":"U","NORAD_CAT_ID":45136,"ELEMENT_SET_NO":999,"REV_AT_EPOCH":28438,"BSTAR":-0.0017501211,"MEAN_MOTION_DOT":-5.98e-6,"MEAN_MOTION_DDOT":0},{"OBJECT_NAME":"ONEWEB-0024","OBJECT_ID":"2020-008G","EPOCH":"2025-12-18T05:31:10.776576","MEAN_MOTION":13.10370381,"ECCENTRICITY":0.00017271,"INCLINATION":87.8826,"RA_OF_ASC_NODE":72.3174,"ARG_OF_PERICENTER":102.9387,"MEAN_ANOMALY":257.1934,"EPHEMERIS_TYPE":0,"CLASSIFICATION_TYPE":"U","NORAD_CAT_ID":45137,"ELEMENT_SET_NO":999,"REV_AT_EPOCH":28454,"BSTAR":0.00099628239,"MEAN_MOTION_DOT":3.6e-6,"MEAN_MOTION_DDOT":0},{"OBJECT_NAME":"ONEWEB-0025","OBJECT_ID":"2020-008H","EPOCH":"2025-12-18T05:56:15.239904","MEAN_MOTION":13.10370597,"ECCENTRICITY":0.00020344,"INCLINATION":87.8809,"RA_OF_ASC_NODE":72.3168,"ARG_OF_PERICENTER":108.171,"MEAN_ANOMALY":251.9639,"EPHEMERIS_TYPE":0,"CLASSIFICATION_TYPE":"U","NORAD_CAT_ID":45138,"ELEMENT_SET_NO":999,"REV_AT_EPOCH":28487,"BSTAR":-0.0011654854,"MEAN_MOTION_DOT":-3.94e-6,"MEAN_MOTION_DDOT":0},{"OBJECT_NAME":"ONEWEB-0026","OBJECT_ID":"2020-008J","EPOCH":"2025-12-18T06:12:50.207616","MEAN_MOTION":13.11418016,"ECCENTRICITY":0.00016019,"INCLINATION":87.8857,"RA_OF_ASC_NODE":57.0929,"ARG_OF_PERICENTER":100.3441,"MEAN_ANOMALY":259.7867,"EPHEMERIS_TYPE":0,"CLASSIFICATION_TYPE":"U","NORAD_CAT_ID":45139,"ELEMENT_SET_NO":999,"REV_AT_EPOCH":28739,"BSTAR":0.0015164712,"MEAN_MOTION_DOT":5.5e-6,"MEAN_MOTION_DDOT":0},{"OBJECT_NAME":"ONEWEB-0028","OBJECT_ID":"2020-008K","EPOCH":"2025-12-18T05:10:33.933792","MEAN_MOTION":13.11415636,"ECCENTRICITY":0.00023652,"INCLINATION":87.8849,"RA_OF_ASC_NODE":57.1159,"ARG_OF_PERICENTER":108.3311,"MEAN_ANOMALY":251.8074,"EPHEMERIS_TYPE":0,"CLASSIFICATION_TYPE":"U","NORAD_CAT_ID":45140,"ELEMENT_SET_NO":999,"REV_AT_EPOCH":28490,"BSTAR":-0.0012977504,"MEAN_MOTION_DOT":-4.47e-6,"MEAN_MOTION_DDOT":0},{"OBJECT_NAME":"ONEWEB-0032","OBJECT_ID":"2020-008L","EPOCH":"2025-12-18T06:18:57.832704","MEAN_MOTION":13.10374654,"ECCENTRICITY":0.00018669,"INCLINATION":87.881,"RA_OF_ASC_NODE":72.3422,"ARG_OF_PERICENTER":107.0312,"MEAN_ANOMALY":253.102,"EPHEMERIS_TYPE":0,"CLASSIFICATION_TYPE":"U","NORAD_CAT_ID":45141,"ELEMENT_SET_NO":999,"REV_AT_EPOCH":28460,"BSTAR":-0.0014356232,"MEAN_MOTION_DOT":-4.88e-6,"MEAN_MOTION_DDOT":0}]
