ONEWEB-0012             
1 44057U 19010A   25352.22840503  .00000027  00000+0  36508-4 0  9996
2 44057  87.9038 264.8227 0001995  83.1110 277.0248 13.16596626327755
ONEWEB-0010             
1 44058U 19010B   25352.25373673 -.00000083  00000+0 -25150-3 0  9993
2 44058  87.9046 264.8077 0001801  62.2896 297.8417 13.16592463327802
ONEWEB-0008             
1 44059U 19010C   25352.27906495  .00000082  00000+0  18177-3 0  9998
2 44059  87.9046 264.7999 0001514  78.0014 282.1287 13.16597404327928
ONEWEB-0007             
1 44060U 19010D   25352.24654812  .00000004  00000+0 -22210-4 0  9999
2 44060  87.8997 295.3336 0002163  74.1379 285.9989 13.15548917327587
ONEWEB-0006             
1 44061U 19010E   25352.25050202 -.00000094  00000+0 -28421-3 0  9993
2 44061  87.9006 295.2796 0001936  72.3968 287.7374 13.15548027327636
ONEWEB-0011             
1 44062U 19010F   25352.21881656  .00000145  00000+0  34978-3 0  9994
2 44062  87.9005 295.2946 0001635  78.3635 281.7679 13.15550132327627
ONEWEB-0013             
1 45131U 20008A   25352.22809989 -.00000688  00000+0 -20353-2 0  9996
2 45131  87.8512  89.3771 0002588 113.4217 246.7182 13.09441889282384
ONEWEB-0017             
1 45132U 20008B   25352.26150994 -.00000552  00000+0 -16181-2 0  9990
2 45132  87.8806  72.3429 0001563  96.9299 263.2006 13.10373788284251
ONEWEB-0020             
1 45133U 20008C   25352.23164742  .00000313  00000+0  86053-3 0  9993
2 45133  87.8810  72.3360 0001559 109.7465 250.3831 13.10370288284642
ONEWEB-0021             
1 45134U 20008D   25352.24657341 -.00000336  00000+0 -99940-3 0  9993
2 45134  87.8804  72.3622 0001803 102.8305 257.3024 13.10370691284959
ONEWEB-0023             
1 45136U 20008F   25352.25736003 -.00000598  00000+0 -17501-2 0  9991
2 45136  87.8801  72.3408 0001861 107.6262 252.5069 13.10373700284386
ONEWEB-0024             
1 45137U 20008G   25352.22998584  .00000360  00000+0  99628-3 0  9999
2 45137  87.8826  72.3174 0001727 102.9387 257.1934 13.10370381284543
ONEWEB-0025             
1 45138U 20008H   25352.24739861 -.00000394  00000+0 -11655-2 0  9995
2 45138  87.8809  72.3168 0002034 108.1710 251.9639 13.10370597284877
ONEWEB-0026             
1 45139U 20008J   25352.25891444  .00000550  00000+0  15165-2 0  9995
2 45139  87.8857  57.0929 0001601 100.3441 259.7867 13.11418016287399
ONEWEB-0028             
1 45140U 20008K   25352.21567053 -.00000447  00000+0 -12978-2 0  9995
2 45140  87.8849  57.1159 0002365 108.3311 251.8074 13.11415636284902
ONEWEB-0032             
1 45141U 20008L   25352.26316936 -.00000488  00000+0 -14356-2 0  9990
2 45141  87.8810  72.3422 0001866 107.0312 253.1020 13.10374654284601
